CCSDS_OMM_VERS = 2.0
CREATION_DATE  = 
ORIGINATOR     = 

OBJECT_NAME    = DELTA 2 R/B(1)
OBJECT_ID      = 1990-008B
CENTER_NAME    = EARTH
REF_FRAME      = TEME
TIME_SYSTEM    = UTC
MEAN_ELEMENT_THEORY = SGP/SGP4

EPOCH          = 2026-01-13T12:10:47.929152
MEAN_MOTION    = 15.48485338
ECCENTRICITY   = .0102179
INCLINATION    = 35.6030
RA_OF_ASC_NODE = 174.9141
ARG_OF_PERICENTER = 108.2786
MEAN_ANOMALY   = 252.9096

EPHEMERIS_TYPE = 0
CLASSIFICATION_TYPE = U
NORAD_CAT_ID   = 20453
ELEMENT_SET_NO = 999
REV_AT_EPOCH   = 91755
BSTAR          = .68498E-3
MEAN_MOTION_DOT = .46638E-3
MEAN_MOTION_DDOT = 0

CCSDS_OMM_VERS = 2.0
CREATION_DATE  = 
ORIGINATOR     = 

OBJECT_NAME    = COSMOS 2058
OBJECT_ID      = 1990-010A
CENTER_NAME    = EARTH
REF_FRAME      = TEME
TIME_SYSTEM    = UTC
MEAN_ELEMENT_THEORY = SGP/SGP4

EPOCH          = 2026-01-13T18:01:54.918048
MEAN_MOTION    = 15.10804521
ECCENTRICITY   = .0010333
INCLINATION    = 82.4688
RA_OF_ASC_NODE = 101.5418
ARG_OF_PERICENTER = 158.1801
MEAN_ANOMALY   = 201.9871

EPHEMERIS_TYPE = 0
CLASSIFICATION_TYPE = U
NORAD_CAT_ID   = 20465
ELEMENT_SET_NO = 999
REV_AT_EPOCH   = 93394
BSTAR          = .11959196E-3
MEAN_MOTION_DOT = .2017E-4
MEAN_MOTION_DDOT = 0

CCSDS_OMM_VERS = 2.0
CREATION_DATE  = 
ORIGINATOR     = 

OBJECT_NAME    = SL-14 R/B
OBJECT_ID      = 1990-010B
CENTER_NAME    = EARTH
REF_FRAME      = TEME
TIME_SYSTEM    = UTC
MEAN_ELEMENT_THEORY = SGP/SGP4

EPOCH          = 2026-01-13T18:49:31.618272
MEAN_MOTION    = 14.83508026
ECCENTRICITY   = .00212112
INCLINATION    = 82.5042
RA_OF_ASC_NODE = 318.9529
ARG_OF_PERICENTER = 118.4988
MEAN_ANOMALY   = 241.8367

EPHEMERIS_TYPE = 0
CLASSIFICATION_TYPE = U
NORAD_CAT_ID   = 20466
ELEMENT_SET_NO = 999
REV_AT_EPOCH   = 92034
BSTAR          = .41447564E-4
MEAN_MOTION_DOT = .366E-5
MEAN_MOTION_DDOT = 0

CCSDS_OMM_VERS = 2.0
CREATION_DATE  = 
ORIGINATOR     = 

OBJECT_NAME    = SL-14 R/B
OBJECT_ID      = 1990-018B
CENTER_NAME    = EARTH
REF_FRAME      = TEME
TIME_SYSTEM    = UTC
MEAN_ELEMENT_THEORY = SGP/SGP4

EPOCH          = 2026-01-14T03:42:15.903936
MEAN_MOTION    = 14.82085148
ECCENTRICITY   = .00148798
INCLINATION    = 82.5215
RA_OF_ASC_NODE = 274.0714
ARG_OF_PERICENTER = 272.1718
MEAN_ANOMALY   = 87.7792

EPHEMERIS_TYPE = 0
CLASSIFICATION_TYPE = U
NORAD_CAT_ID   = 20511
ELEMENT_SET_NO = 999
REV_AT_EPOCH   = 91450
BSTAR          = .36070033E-4
MEAN_MOTION_DOT = .31E-5
MEAN_MOTION_DDOT = 0

CCSDS_OMM_VERS = 2.0
CREATION_DATE  = 
ORIGINATOR     = 

OBJECT_NAME    = HST
OBJECT_ID      = 1990-037B
CENTER_NAME    = EARTH
REF_FRAME      = TEME
TIME_SYSTEM    = UTC
MEAN_ELEMENT_THEORY = SGP/SGP4

EPOCH          = 2026-01-13T12:41:14.025984
MEAN_MOTION    = 15.28523711
ECCENTRICITY   = .00019593
INCLINATION    = 28.4674
RA_OF_ASC_NODE = 56.0330
ARG_OF_PERICENTER = 208.9893
MEAN_ANOMALY   = 151.0594

EPHEMERIS_TYPE = 0
CLASSIFICATION_TYPE = U
NORAD_CAT_ID   = 20580
ELEMENT_SET_NO = 999
REV_AT_EPOCH   = 76486
BSTAR          = .16760159E-3
MEAN_MOTION_DOT = .5011E-4
MEAN_MOTION_DDOT = 0

CCSDS_OMM_VERS = 2.0
CREATION_DATE  = 
ORIGINATOR     = 

OBJECT_NAME    = SL-16 R/B
OBJECT_ID      = 1990-046B
CENTER_NAME    = EARTH
REF_FRAME      = TEME
TIME_SYSTEM    = UTC
MEAN_ELEMENT_THEORY = SGP/SGP4

EPOCH          = 2026-01-14T02:57:09.510336
MEAN_MOTION    = 14.15007352
ECCENTRICITY   = .00133425
INCLINATION    = 70.9997
RA_OF_ASC_NODE = 52.5126
ARG_OF_PERICENTER = 18.0274
MEAN_ANOMALY   = 342.1319

EPHEMERIS_TYPE = 0
CLASSIFICATION_TYPE = U
NORAD_CAT_ID   = 20625
ELEMENT_SET_NO = 999
REV_AT_EPOCH   = 84067
BSTAR          = .77656922E-4
MEAN_MOTION_DOT = .103E-5
MEAN_MOTION_DDOT = 0

CCSDS_OMM_VERS = 2.0
CREATION_DATE  = 
ORIGINATOR     = 

OBJECT_NAME    = COSMOS 2084
OBJECT_ID      = 1990-055A
CENTER_NAME    = EARTH
REF_FRAME      = TEME
TIME_SYSTEM    = UTC
MEAN_ELEMENT_THEORY = SGP/SGP4

EPOCH          = 2026-01-13T18:57:57.581856
MEAN_MOTION    = 15.05247256
ECCENTRICITY   = .00262729
INCLINATION    = 62.7888
RA_OF_ASC_NODE = 162.7668
ARG_OF_PERICENTER = 179.4638
MEAN_ANOMALY   = 180.6496

EPHEMERIS_TYPE = 0
CLASSIFICATION_TYPE = U
NORAD_CAT_ID   = 20663
ELEMENT_SET_NO = 999
REV_AT_EPOCH   = 92805
BSTAR          = .15251605E-3
MEAN_MOTION_DOT = .1999E-4
MEAN_MOTION_DDOT = 0

CCSDS_OMM_VERS = 2.0
CREATION_DATE  = 
ORIGINATOR     = 

OBJECT_NAME    = SL-6 R/B(2)
OBJECT_ID      = 1990-055D
CENTER_NAME    = EARTH
REF_FRAME      = TEME
TIME_SYSTEM    = UTC
MEAN_ELEMENT_THEORY = SGP/SGP4

EPOCH          = 2026-01-14T03:57:04.819104
MEAN_MOTION    = 15.03261167
ECCENTRICITY   = .00168951
INCLINATION    = 62.7837
RA_OF_ASC_NODE = 79.2263
ARG_OF_PERICENTER = 328.4911
MEAN_ANOMALY   = 31.5175

EPHEMERIS_TYPE = 0
CLASSIFICATION_TYPE = U
NORAD_CAT_ID   = 20666
ELEMENT_SET_NO = 999
REV_AT_EPOCH   = 92999
BSTAR          = .10012326E-3
MEAN_MOTION_DOT = .1167E-4
MEAN_MOTION_DDOT = 0

CCSDS_OMM_VERS = 2.0
CREATION_DATE  = 
ORIGINATOR     = 

OBJECT_NAME    = SL-8 R/B
OBJECT_ID      = 1990-078B
CENTER_NAME    = EARTH
REF_FRAME      = TEME
TIME_SYSTEM    = UTC
MEAN_ELEMENT_THEORY = SGP/SGP4

EPOCH          = 2026-01-13T20:09:43.150464
MEAN_MOTION    = 14.87056237
ECCENTRICITY   = .03687961
INCLINATION    = 82.9057
RA_OF_ASC_NODE = 300.5556
ARG_OF_PERICENTER = 197.8152
MEAN_ANOMALY   = 160.9857

EPHEMERIS_TYPE = 0
CLASSIFICATION_TYPE = U
NORAD_CAT_ID   = 20775
ELEMENT_SET_NO = 999
REV_AT_EPOCH   = 80114
BSTAR          = .33575515E-3
MEAN_MOTION_DOT = .1108E-3
MEAN_MOTION_DDOT = 0

CCSDS_OMM_VERS = 2.0
CREATION_DATE  = 
ORIGINATOR     = 

OBJECT_NAME    = SL-8 R/B
OBJECT_ID      = 1991-006B
CENTER_NAME    = EARTH
REF_FRAME      = TEME
TIME_SYSTEM    = UTC
MEAN_ELEMENT_THEORY = SGP/SGP4

EPOCH          = 2026-01-14T02:03:51.472224
MEAN_MOTION    = 13.77492302
ECCENTRICITY   = .00222997
INCLINATION    = 82.9406
RA_OF_ASC_NODE = 210.6512
ARG_OF_PERICENTER = 185.2420
MEAN_ANOMALY   = 294.6321

EPHEMERIS_TYPE = 0
CLASSIFICATION_TYPE = U
NORAD_CAT_ID   = 21088
ELEMENT_SET_NO = 999
REV_AT_EPOCH   = 75655
BSTAR          = -.34640201E-4
MEAN_MOTION_DOT = -.19E-6
MEAN_MOTION_DDOT = 0

CCSDS_OMM_VERS = 2.0
CREATION_DATE  = 
ORIGINATOR     = 

OBJECT_NAME    = OKEAN-3
OBJECT_ID      = 1991-039A
CENTER_NAME    = EARTH
REF_FRAME      = TEME
TIME_SYSTEM    = UTC
MEAN_ELEMENT_THEORY = SGP/SGP4

EPOCH          = 2026-01-14T01:52:12.021024
MEAN_MOTION    = 15.04345247
ECCENTRICITY   = .00154525
INCLINATION    = 82.5158
RA_OF_ASC_NODE = 29.7366
ARG_OF_PERICENTER = 150.6390
MEAN_ANOMALY   = 209.5708

EPHEMERIS_TYPE = 0
CLASSIFICATION_TYPE = U
NORAD_CAT_ID   = 21397
ELEMENT_SET_NO = 999
REV_AT_EPOCH   = 85682
BSTAR          = .10690239E-3
MEAN_MOTION_DOT = .1522E-4
MEAN_MOTION_DDOT = 0

CCSDS_OMM_VERS = 2.0
CREATION_DATE  = 
ORIGINATOR     = 

OBJECT_NAME    = COSMOS 2151
OBJECT_ID      = 1991-042A
CENTER_NAME    = EARTH
REF_FRAME      = TEME
TIME_SYSTEM    = UTC
MEAN_ELEMENT_THEORY = SGP/SGP4

EPOCH          = 2026-01-14T02:46:06.523392
MEAN_MOTION    = 14.99844836
ECCENTRICITY   = .00113699
INCLINATION    = 82.4983
RA_OF_ASC_NODE = 136.3025
ARG_OF_PERICENTER = 240.7943
MEAN_ANOMALY   = 119.2144

EPHEMERIS_TYPE = 0
CLASSIFICATION_TYPE = U
NORAD_CAT_ID   = 21422
ELEMENT_SET_NO = 999
REV_AT_EPOCH   = 85501
BSTAR          = .11362969E-3
MEAN_MOTION_DOT = .1435E-4
MEAN_MOTION_DDOT = 0

