DELTA 2 R/B(1)          
1 20453U 90008B   26013.50749918  .00046638  00000+0  68498-3 0  9990
2 20453  35.6030 174.9141 0102179 108.2786 252.9096 15.48485338917551
COSMOS 2058             
1 20465U 90010A   26013.75133007  .00002017  00000+0  11959-3 0  9992
2 20465  82.4688 101.5418 0010333 158.1801 201.9871 15.10804521933942
SL-14 R/B               
1 20466U 90010B   26013.78439373  .00000366  00000+0  41448-4 0  9993
2 20466  82.5042 318.9529 0021211 118.4988 241.8367 14.83508026920340
SL-14 R/B               
1 20511U 90018B   26014.15435074  .00000310  00000+0  36070-4 0  9992
2 20511  82.5215 274.0714 0014879 272.1718  87.7792 14.82085148914506
HST                     
1 20580U 90037B   26013.52863456  .00005011  00000+0  16760-3 0  9994
2 20580  28.4674  56.0330 0001959 208.9893 151.0594 15.28523711764869
SL-16 R/B               
1 20625U 90046B   26014.12302674  .00000103  00000+0  77657-4 0  9991
2 20625  70.9997  52.5126 0013342  18.0274 342.1319 14.15007352840670
COSMOS 2084             
1 20663U 90055A   26013.79024979  .00001999  00000+0  15252-3 0  9990
2 20663  62.7888 162.7668 0026272 179.4638 180.6496 15.05247256928056
SL-6 R/B(2)             
1 20666U 90055D   26014.16463911  .00001167  00000+0  10012-3 0  9994
2 20666  62.7837  79.2263 0016895 328.4911  31.5175 15.03261167929993
SL-8 R/B                
1 20775U 90078B   26013.84008276  .00011080  00000+0  33576-3 0  9998
2 20775  82.9057 300.5556 0368796 197.8152 160.9857 14.87056237801143
SL-8 R/B                
1 21088U 91006B   26014.08601241 -.00000019  00000+0 -34640-4 0  9992
2 21088  82.9406 210.6512 0022299 185.2420 294.6321 13.77492302756556
OKEAN-3                 
1 21397U 91039A   26014.07791691  .00001522  00000+0  10690-3 0  9995
2 21397  82.5158  29.7366 0015452 150.6390 209.5708 15.04345247856822
COSMOS 2151             
1 21422U 91042A   26014.11535328  .00001435  00000+0  11363-3 0  9997
2 21422  82.4983 136.3025 0011369 240.7943 119.2144 14.99844836855013
